#dP2019  3 19  0  0  0.00000000      96 __u+U ITR00 FIT  IAC
## 2045 172800.00000000   900.00000000 58561 0.0000000000000
+  107   C01C02C03C04C05C06C07C08C09C10C11C12C13C14C16C19C20
+        C21C22C24C25C26C29C30E01E02E03E04E05E07E08E09E11E12
+        E13E14E15E18E19E21E24E25E26E27E30E31E33E36G01G02G03
+        G04G05G06G07G08G09G10G11G12G13G14G15G16G17G18G19G20
+        G21G22G23G24G25G26G27G28G29G30G31G32J01J02J03J07R01
+        R02R03R04R05R07R08R09R10R11R13R14R15R16R17R18R19R20
+        R21R22R23R24R26  0  0  0  0  0  0  0  0  0  0  0  0
++        11 11 12 11 12  9  8  8  8  8  8  7  8  7  9 14 20
++        15  0 15 17 14 16 14  5  5  5  5  5  5  5  5  5  4
++         5  0  5  5  5  5  5  5  5  5  5  5  5  5  3  3  3
++         4  3  3  3  3  3  3  3  3  3  3  3  3  3  3  3  3
++         3  3  3  3  3  3  3  3  3  3  3  3 10 10 10 15  5
++         5  5  5  5  5  5  6  6  5  5  5  5  5  5  5  6  5
++         5  6  5  6  8  0  0  0  0  0  0  0  0  0  0  0  0
%c M  cc GPS ccc cccc cccc cccc cccc ccccc ccccc ccccc ccccc
%c cc cc ccc ccc cccc cccc cccc cccc ccccc ccccc ccccc ccccc
%f  0.0000000  0.000000000  0.00000000000  0.000000000000000
%f  0.0000000  0.000000000  0.00000000000  0.000000000000000
%i    0    0    0    0      0      0      0      0         0
%i    0    0    0    0      0      0      0      0         0
/* INFORMATION & ANALYSIS CENTER (IAC) OF MCC   (RAPID DATA)
/* S/V CLOCKS ARE ALIGNED TO GPS & GLONASS TIME RESPECTIVELY
/* USING THE BROADCAST EPHEMERIS                            
/* PCV:IGS14_2038 OL/AL:FES2004  NONE     YN ORB:CoN CLK:CoN
*  2019 03 19  2 45  0.00000000
PC01 -32301.625335  27109.715922   -447.891732    348.499485
PC02   4436.308468  41895.116568   -749.897874   -385.817950
PC03 -14726.919347  39489.914250   -507.989981    -32.940449
PC04 -39638.347783  14392.418232   -448.727037     19.082813
PC05  21931.520630  36005.457401   -643.264657   -135.463347
PC06 -23878.223411  29368.717166  18496.809357    551.581153
PC07 -10617.793295  37464.678481  16834.518545     89.941466
PC08 -11488.804711  18691.304506 -35915.348487    131.458898
PC09 -10633.028915  28899.397469  28854.111943    616.647509
PC10  -1581.564095  41928.234779   6031.827032   -586.355234
PC11 -13427.331657 -12748.056053  20955.138663    -57.810186
PC12  17273.892261 -13240.961088  17488.377275    503.634497
PC13   3298.946246  26316.944024 -32661.571956   -601.419022
PC14   2435.584015 -25269.172823 -11578.689393    750.909265
PC16 -20867.628714  29821.763999  21150.381968   -391.771948
PC19  12047.415232  11434.750857  22454.506552     65.129936
PC20  -1228.113730  24761.995647  12857.802595    282.756694
PC21  14122.893784 -23616.212551   4608.556871 999999.999999
PC22      0.000000      0.000000      0.000000 999999.999999
PC24  -8187.016457 -24611.574090 -10335.179087 999999.999999
PC25 -19778.720532 -18289.055654   7309.386576 999999.999999
PC26   6739.587456 -16440.425480 -21529.964863 999999.999999
PC29  21959.268350   8125.254606 -15189.208029 999999.999999
PC30   3253.045592  15642.481857 -22874.861779 999999.999999
PE01  -8962.075875 -27974.914078   3649.369913   -565.101744
PE02   8998.378590  27947.710078  -3711.009318     52.093521
PE03   2982.748581  19037.408405  22473.872618   -145.451731
PE04 -19302.418082  -3503.977049 -22160.375996   -243.257993
PE05 -15194.222324  23514.107409   9615.476323     89.245023
PE07  24415.852294 -14214.994368   8824.725710   -151.844606
PE08  19287.532252   3177.470092  22228.298412   6386.604701
PE09 -24261.260563  14489.046771  -8828.583852   6496.010649
PE11 -25129.244393   3262.143028 -15275.507671   5714.753180
PE12 -27518.639701 -10355.378405   3313.033661   6403.835683
PE13  25219.503735  -3220.121326  15179.692593    384.400937
PE14      0.000000      0.000000      0.000000 999999.999999
PE15  27709.612718   9991.696998  -2956.265139    916.719364
PE18  28081.091747   -921.612617  -9466.048073   -596.115820
PE19  -1031.878811 -19996.459653 -21797.975373     -7.650850
PE21   4205.550499 -25199.802558 -14957.463470   -524.763636
PE24 -14742.231484   7948.197574  24387.891045   6178.118093
PE25  -4232.118511  25171.154590  14987.287380   1861.258545
PE26   8175.603272 -14673.795190  24382.712836   4782.527805
PE27  14811.030038  -7547.361828 -24494.777061    507.714119
PE30  16739.492071  14190.664007 -19871.795360   5021.685345
PE31 -16716.012255 -14508.438026  19653.818235    879.557027
PE33 -13962.473920 -17410.959336  19450.743778    847.946211
PE36  -7939.162415  14593.090419 -24485.234428    734.827642
PG01  22493.444445  13739.377880   4285.617785   -183.609790
PG02  -9220.958948 -19770.010783  15873.480281   -167.066159
PG03  13173.508478  10181.927371  20674.876179    186.759301
PG04  24399.121922 -10391.716841  -1499.635421    136.019126
PG05  -3216.354282 -25005.445698  -8136.295106      1.178371
PG06   2961.456623 -15819.344053  21168.133155    251.879430
PG07  21260.808089   2621.356269 -15744.781337     12.217800
PG08  13605.515420   9570.729682 -20710.079178   -136.682384
PG09  25109.247768  -7502.383990   4318.420216    443.031524
PG10 -11265.566914  20523.857033 -12296.125676     94.023619
PG11  23722.508978  10139.536387  -6297.188245   -642.569174
PG12 -11376.626673 -12370.541889  20404.984912    258.931474
PG13  -4695.088416 -14366.624348 -21956.047060    -71.191006
PG14 -11434.150632  16601.602876  17510.460852    -87.825486
PG15 -16459.155613  -7935.446352 -19654.555594   -322.854649
PG16   1689.756634  24261.737161 -10300.732168    -26.381172
PG17  19364.208166 -14661.663433  11046.867413     25.551828
PG18  18827.511914  18064.897239  -5828.106964     36.121132
PG19  12839.615426 -15697.168893  16907.609295   -340.717975
PG20 -14228.915308  12160.274672 -18899.577203    523.220664
PG21 -19002.658465   2354.994437 -17549.491535   -229.767087
PG22  11405.757583  17579.035178  16590.604596   -666.997275
PG23  22642.154187   1523.253272  14444.500605   -193.520504
PG24 -22032.390554 -15153.076024     54.367072    -63.587948
PG25 -15066.872051   1140.629746  21617.310784   -734.883305
PG26  -3520.842332  26206.543267   1012.625887    152.925259
PG27   2248.517731  15002.534861 -21866.035375    -89.148447
PG28  12792.546642 -19361.086709 -12395.342212    766.511165
PG29 -24833.889262   2096.518497   9148.854370    246.108383
PG30  14043.674482  -8199.304243 -21008.757812    -70.929546
PG31  -2582.838598  16461.406913  20581.065147     51.182584
PG32 -16515.987806  16577.101467  12506.715752   -174.340872
PJ01 -21882.585921  34384.839335  -6146.916363   -343.438357
PJ02 -24508.713596  22519.512922  30608.824750      0.386543
PJ03 -34963.841837  20734.962790  -6527.089946     -0.311621
PJ07 -25382.564550  33659.228272     25.415602     67.368605
PR01  -6642.167614  -9683.312131 -22640.253145     41.038013
PR02 -16484.164490   9449.537983 -16952.036825    359.449905
PR03 -15015.650605  20564.937592  -1007.325021     -7.516497
PR04  -4424.902655  19484.684563  15863.661668    299.103631
PR05   7926.156641   7543.188801  23051.994811     24.339629
PR07  14919.875235 -20706.030636    624.944929    -60.151817
PR08   5059.560561 -19798.854825 -15219.706477     18.598130
PR09  12282.419910    704.930194 -22344.853437     59.830782
PR10   4002.154878 -14436.767538 -20647.902963     45.395428
PR11  -7421.617926 -23518.758464  -6426.919472    -60.141562
PR13 -12571.109593  -2189.186418  22063.760023    -21.404872
PR14  -3987.512741  14694.070413  20473.882511     37.048249
PR15   6955.252090  23422.504028   7329.479670    100.719107
PR16  14339.277234  18381.928729 -10237.140649     10.689438
PR17 -15637.635877   7218.468568 -18813.257569    213.229336
PR18   2386.062767  10716.122266 -23010.100735     37.090675
PR19  18840.273901   8844.814877 -14745.201861     48.523382
PR20  25223.445966   1229.789795   3804.109721   -372.194707
PR21  15054.181487  -7377.838698  19223.447038    -37.348812
PR22  -4996.857779 -10731.533718  22585.288808    -10.121094
PR23 -22229.587789  -6893.022773  10428.700281    216.203834
PR24 -24914.173125     28.996608  -5439.539533   -178.355229
PR26  25395.399495   1802.709133   1413.486664      2.298028
EOF
